KUIPER-00604            
1 69769U 26151G   26193.58335648 -.00008246  00000+0 -20556-3 0  9997
2 69769  51.8790 192.9460 0002745  95.2442 280.2305 15.38207186  2579
KUIPER-00609            
1 69770U 26151H   26193.58335648 -.00007327  00000+0 -17914-3 0  9992
2 69770  51.8791 192.9135 0001221  39.7323 351.3825 15.38604646  1309
KUIPER-00611            
1 69771U 26151J   26193.58335648 -.00007729  00000+0 -19070-3 0  9994
2 69771  51.8794 192.9255 0001672  89.2909 294.0725 15.38418936  1303
KUIPER-00612            
1 69772U 26151K   26193.58335648 -.00009102  00000+0 -23021-3 0  9993
2 69772  51.8784 192.9705 0003708 104.6163 259.8744 15.37909183  1307
KUIPER-00614            
1 69773U 26151L   26193.58335648 -.00008632  00000+0 -21629-3 0  9993
2 69773  51.8794 192.9509 0002695 110.6386 261.6547 15.38121181  2150
KUIPER-00615            
1 69774U 26151M   26193.58335648 -.00010419  00000+0 -27117-3 0  9998
2 69774  51.8769 193.0265 0005992 136.8967 201.1183 15.37203308  1304
KUIPER-00616            
1 69775U 26151N   26193.58335648 -.00008184  00000+0 -20290-3 0  9990
2 69775  51.8775 192.9452 0003113 110.4640 267.0628 15.38359194  1308
KUIPER-00617            
1 69776U 26151P   26193.58335648 -.00009114  00000+0 -23176-3 0  9991
2 69776  51.8789 192.9785 0003976 124.1173 235.8457 15.37747337  1305
KUIPER-00619            
1 69777U 26151Q   26193.58335648 -.00007440  00000+0 -18265-3 0  9995
2 69777  51.8792 192.9190 0001841  52.2224 335.2407 15.38505646  1640
KUIPER-00621            
1 69778U 26151R   26193.58335648 -.00008034  00000+0 -19945-3 0  9992
2 69778  51.8785 192.9408 0002004  99.4536 279.4027 15.38297182  2399
KUIPER-00622            
1 69779U 26151S   26193.58335648 -.00010776  00000+0 -28298-3 0  9990
2 69779  51.8729 193.0428 0006713 138.4275 192.2716 15.36963403  2242
KUIPER-00623            
1 69780U 26151T   26193.58335648 -.00009885  00000+0 -25507-3 0  9991
2 69780  51.8772 193.0040 0004954 124.1824 224.6443 15.37404788  2366
KUIPER-00626            
1 69781U 26151U   26193.58335648 -.00003589  00000+0 -90989-4 0  9994
2 69781  51.8713 193.1194 0009767 157.4070 135.3634 15.35593735  2608
KUIPER-00627            
1 69782U 26151V   26193.58335648 -.00016304  00000+0 -45477-3 0  9995
2 69782  51.8687 193.1372 0010810 158.1616 125.5972 15.35476395  1306
KUIPER-00629            
1 69783U 26151W   26193.58335648 -.00011346  00000+0 -29873-3 0  9999
2 69783  51.8740 193.0474 0007237 137.9598 190.3206 15.36940885  1932
KUIPER-00631            
1 69784U 26151X   26193.58335648 -.00011212  00000+0 -29720-3 0  9993
2 69784  51.8708 193.0647 0007748 145.7069 174.0596 15.36713187  1301
KUIPER-00634            
1 69785U 26151Y   26193.58335648 -.00009004  00000+0 -22916-3 0  9990
2 69785  51.8764 192.9871 0003636 124.1988 233.3620 15.37705578  1330
KUIPER-00639            
1 69786U 26151Z   26193.58335648 -.00007959  00000+0 -21328-3 0  9994
2 69786  51.8683 193.1013 0009613 152.8540 148.7577 15.35892894  1308
KUIPER-00641            
1 69787U 26151AA  26193.58335648 -.00011386  00000+0 -31670-3 0  9995
2 69787  51.8674 193.1392 0010747 152.1328 130.3385 15.35217585  2242
KUIPER-00644            
1 69788U 26151AB  26193.58335648 -.00011377  00000+0 -30347-3 0  9996
2 69788  51.8734 193.0788 0008431 148.5334 164.4095 15.36531598  2544
KUIPER-00646            
1 69789U 26151AC  26193.58335648 -.00013962  00000+0 -38184-3 0  9996
2 69789  51.8697 193.0979 0009456 153.3894 149.8486 15.35965961  1430
KUIPER-00647            
1 69790U 26151AD  26193.58335648 -.00012157  00000+0 -33448-3 0  9991
2 69790  51.8660 193.1287 0010555 154.9398 132.4823 15.35627081  2389
KUIPER-00662            
1 69791U 26151AE  26193.58335648 -.00013895  00000+0 -37239-3 0  9994
2 69791  51.8721 193.0715 0008650 143.1173 173.3482 15.36592601  1303
LINK                    
1 69792U 26152A   26193.51066977  .00132658  00000+0  11755-2 0  9996
2 69792  20.5931 348.0547 0024175 317.9272  41.9319 15.66412404  1434
ISS OBJECT YJ           
1 69794U 98067YJ  26193.40676478  .00019437  00000+0  34844-3 0  9997
2 69794  51.6302 175.2240 0007802 301.5354  58.4872 15.49914214  1569
ISS OBJECT YK           
1 69795U 98067YK  26193.40414969  .00035221  00000+0  61097-3 0  9992
2 69795  51.6303 175.2070 0006857 311.1581  48.8816 15.50502709  1565
ISS OBJECT YL           
1 69796U 98067YL  26193.40471851  .00027308  00000+0  47886-3 0  9993
2 69796  51.6300 175.2112 0008907 303.4187  56.5949 15.50313816  1555
ISS OBJECT YM           
1 69797U 98067YM  26193.40453950  .00028380  00000+0  49648-3 0  9993
2 69797  51.6301 175.2096 0009640 294.3607  65.6376 15.50351860  1543
ISS OBJECT YN           
1 69798U 98067YN  26193.40489169  .00018589  00000+0  33019-3 0  9990
2 69798  51.6303 175.2115 0009248 305.3124  54.6999 15.50197893  1564
