OBJECT_NAME,OBJECT_ID,EPOCH,MEAN_MOTION,ECCENTRICITY,INCLINATION,RA_OF_ASC_NODE,ARG_OF_PERICENTER,MEAN_ANOMALY,EPHEMERIS_TYPE,CLASSIFICATION_TYPE,NORAD_CAT_ID,ELEMENT_SET_NO,REV_AT_EPOCH,BSTAR,MEAN_MOTION_DOT,MEAN_MOTION_DDOT
KUIPER-00604,2026-151G,2026-07-12T14:00:01.999872,15.38207186,.00027458,51.8790,192.9460,95.2442,280.2305,0,U,69769,999,257,-.20556365E-3,-.8246E-4,0
KUIPER-00609,2026-151H,2026-07-12T14:00:01.999872,15.38604646,.00012217,51.8791,192.9135,39.7323,351.3825,0,U,69770,999,130,-.17913778E-3,-.7327E-4,0
KUIPER-00611,2026-151J,2026-07-12T14:00:01.999872,15.38418936,.0001672,51.8794,192.9255,89.2909,294.0725,0,U,69771,999,130,-.19069599E-3,-.7729E-4,0
KUIPER-00612,2026-151K,2026-07-12T14:00:01.999872,15.37909183,.00037086,51.8784,192.9705,104.6163,259.8744,0,U,69772,999,130,-.23021363E-3,-.9102E-4,0
KUIPER-00614,2026-151L,2026-07-12T14:00:01.999872,15.38121181,.00026959,51.8794,192.9509,110.6386,261.6547,0,U,69773,999,215,-.21629441E-3,-.8632E-4,0
KUIPER-00615,2026-151M,2026-07-12T14:00:01.999872,15.37203308,.00059922,51.8769,193.0265,136.8967,201.1183,0,U,69774,999,130,-.2711717E-3,-.10419E-3,0
KUIPER-00616,2026-151N,2026-07-12T14:00:01.999872,15.38359194,.00031135,51.8775,192.9452,110.4640,267.0628,0,U,69775,999,130,-.20290342E-3,-.8184E-4,0
KUIPER-00617,2026-151P,2026-07-12T14:00:01.999872,15.37747337,.00039762,51.8789,192.9785,124.1173,235.8457,0,U,69776,999,130,-.23176129E-3,-.9114E-4,0
KUIPER-00619,2026-151Q,2026-07-12T14:00:01.999872,15.38505646,.00018414,51.8792,192.9190,52.2224,335.2407,0,U,69777,999,164,-.18265368E-3,-.744E-4,0
KUIPER-00621,2026-151R,2026-07-12T14:00:01.999872,15.38297182,.00020045,51.8785,192.9408,99.4536,279.4027,0,U,69778,999,239,-.19944545E-3,-.8034E-4,0
KUIPER-00622,2026-151S,2026-07-12T14:00:01.999872,15.36963403,.00067133,51.8729,193.0428,138.4275,192.2716,0,U,69779,999,224,-.28298144E-3,-.10776E-3,0
KUIPER-00623,2026-151T,2026-07-12T14:00:01.999872,15.37404788,.00049541,51.8772,193.0040,124.1824,224.6443,0,U,69780,999,236,-.25506782E-3,-.9885E-4,0
KUIPER-00626,2026-151U,2026-07-12T14:00:01.999872,15.35593735,.0009767,51.8713,193.1194,157.4070,135.3634,0,U,69781,999,260,-.90989443E-4,-.3589E-4,0
KUIPER-00627,2026-151V,2026-07-12T14:00:01.999872,15.35476395,.00108109,51.8687,193.1372,158.1616,125.5972,0,U,69782,999,130,-.45477463E-3,-.16304E-3,0
KUIPER-00629,2026-151W,2026-07-12T14:00:01.999872,15.36940885,.00072375,51.8740,193.0474,137.9598,190.3206,0,U,69783,999,193,-.29872608E-3,-.11346E-3,0
KUIPER-00631,2026-151X,2026-07-12T14:00:01.999872,15.36713187,.00077486,51.8708,193.0647,145.7069,174.0596,0,U,69784,999,130,-.29720357E-3,-.11212E-3,0
KUIPER-00634,2026-151Y,2026-07-12T14:00:01.999872,15.37705578,.00036365,51.8764,192.9871,124.1988,233.3620,0,U,69785,999,133,-.22915643E-3,-.9004E-4,0
KUIPER-00639,2026-151Z,2026-07-12T14:00:01.999872,15.35892894,.00096138,51.8683,193.1013,152.8540,148.7577,0,U,69786,999,130,-.21327771E-3,-.7959E-4,0
KUIPER-00641,2026-151AA,2026-07-12T14:00:01.999872,15.35217585,.00107474,51.8674,193.1392,152.1328,130.3385,0,U,69787,999,224,-.31670366E-3,-.11386E-3,0
KUIPER-00644,2026-151AB,2026-07-12T14:00:01.999872,15.36531598,.00084316,51.8734,193.0788,148.5334,164.4095,0,U,69788,999,254,-.30347168E-3,-.11377E-3,0
KUIPER-00646,2026-151AC,2026-07-12T14:00:01.999872,15.35965961,.00094566,51.8697,193.0979,153.3894,149.8486,0,U,69789,999,143,-.38183544E-3,-.13962E-3,0
KUIPER-00647,2026-151AD,2026-07-12T14:00:01.999872,15.35627081,.0010555,51.8660,193.1287,154.9398,132.4823,0,U,69790,999,238,-.33447762E-3,-.12157E-3,0
KUIPER-00662,2026-151AE,2026-07-12T14:00:01.999872,15.36592601,.00086508,51.8721,193.0715,143.1173,173.3482,0,U,69791,999,130,-.37239094E-3,-.13895E-3,0
LINK,2026-152A,2026-07-12T12:15:21.868128,15.66412404,.00241752,20.5931,348.0547,317.9272,41.9319,0,U,69792,999,143,.11754664E-2,.132658E-2,0
ISS OBJECT YJ,1998-067YJ,2026-07-12T09:45:44.476992,15.49914214,.00078028,51.6302,175.2240,301.5354,58.4872,0,U,69794,999,156,.34844292E-3,.19437E-3,0
ISS OBJECT YK,1998-067YK,2026-07-12T09:41:58.533216,15.50502709,.00068578,51.6303,175.2070,311.1581,48.8816,0,U,69795,999,156,.61097406E-3,.35221E-3,0
ISS OBJECT YL,1998-067YL,2026-07-12T09:42:47.679264,15.50313816,.00089073,51.6300,175.2112,303.4187,56.5949,0,U,69796,999,155,.47885864E-3,.27308E-3,0
ISS OBJECT YM,1998-067YM,2026-07-12T09:42:32.212800,15.50351860,.00096408,51.6301,175.2096,294.3607,65.6376,0,U,69797,999,154,.49647778E-3,.2838E-3,0
ISS OBJECT YN,1998-067YN,2026-07-12T09:43:02.642016,15.50197893,.00092486,51.6303,175.2115,305.3124,54.6999,0,U,69798,999,156,.33018519E-3,.18589E-3,0
